OBJECT_NAME,OBJECT_ID,EPOCH,MEAN_MOTION,ECCENTRICITY,INCLINATION,RA_OF_ASC_NODE,ARG_OF_PERICENTER,MEAN_ANOMALY,EPHEMERIS_TYPE,CLASSIFICATION_TYPE,NORAD_CAT_ID,ELEMENT_SET_NO,REV_AT_EPOCH,BSTAR,MEAN_MOTION_DOT,MEAN_MOTION_DDOT
STARLINK-36902,2026-041D,2026-07-17T02:51:29.186784,15.34395039,.0001342,53.1587,167.3272,92.2190,267.8966,0,U,68043,999,2122,.42687E-3,.14071E-3,0
STARLINK-36966,2026-041E,2026-07-17T01:19:54.927840,15.34392823,.0001345,53.1590,165.5251,91.8698,268.2459,0,U,68044,999,2124,.32362E-3,.10571E-3,0
STARLINK-36864,2026-041F,2026-07-17T01:50:12.443424,15.34406347,.0001184,53.1560,165.6537,104.0620,256.0515,0,U,68045,999,2124,.35376E-3,.11597E-3,0
STARLINK-36321,2026-041G,2026-07-17T07:14:41.783136,15.34399278,.0001687,53.1583,166.3414,90.2970,269.8226,0,U,68046,999,2125,.2801E-3,.9098E-4,0
STARLINK-36181,2026-041H,2026-07-17T06:53:29.020416,15.34402229,.0001022,53.1581,166.2420,87.9089,272.2030,0,U,68047,999,2125,.24564E-3,.7932E-4,0
STARLINK-36318,2026-041J,2026-07-17T14:53:54.489120,15.34392487,.0002059,53.1585,163.3550,84.0910,276.0327,0,U,68048,999,2132,.1744E-3,.5519E-4,0
STARLINK-36885,2026-041K,2026-07-17T07:41:09.232800,15.34404491,.000037,53.1575,164.3375,61.9127,298.1913,0,U,68049,999,2128,.39264E-3,.12915E-3,0
STARLINK-36945,2026-041L,2026-07-17T14:38:46.387968,15.34372097,.0000774,53.1570,163.2805,82.1428,277.9663,0,U,68050,999,2132,.2077E-3,.6642E-4,0
STARLINK-35911,2026-041M,2026-07-17T07:41:57.585696,15.34403454,.000051,53.1593,166.4508,78.7311,281.3749,0,U,68051,999,2125,.51383E-3,.17026E-3,0
STARLINK-35808,2026-041N,2026-07-17T14:54:35.356320,15.34398407,.0002003,53.1603,164.7820,82.9622,277.1609,0,U,68052,999,2130,.27183E-3,.8818E-4,0
STARLINK-36919,2026-041P,2026-07-17T09:18:47.030112,15.34396917,.0001038,53.1574,166.1569,82.7067,277.4053,0,U,68053,999,2126,.20391E-3,.6519E-4,0
STARLINK-36924,2026-041Q,2026-07-17T14:35:45.919104,15.34393260,.000201,53.1581,163.2973,86.3572,273.7661,0,U,68054,999,2132,.668E-3,.22256E-3,0
STARLINK-35998,2026-041R,2026-07-17T02:42:23.592384,15.34399121,.0001363,53.1594,167.2890,104.0010,256.1144,0,U,68055,999,2122,.33563E-3,.1098E-3,0
STARLINK-36845,2026-041S,2026-07-17T14:32:42.029664,15.34390115,.000204,53.1569,163.2573,80.5117,279.6116,0,U,68056,999,2132,.4422E-3,.14589E-3,0
STARLINK-36954,2026-041T,2026-07-17T01:44:09.045888,15.34394308,.0001243,53.1568,165.6189,93.6244,266.4900,0,U,68057,999,2124,.26091E-3,.8447E-4,0
STARLINK-36899,2026-041U,2026-07-17T14:36:24.672096,15.34390888,.0002114,53.1574,164.7128,80.5855,279.5387,0,U,68058,999,2130,.26525E-3,.8593E-4,0
STARLINK-36917,2026-041V,2026-07-17T06:55:49.898208,15.34401538,.0000969,53.1579,164.8355,108.3656,251.7452,0,U,68059,999,2127,.32675E-3,.1068E-3,0
STARLINK-36959,2026-041W,2026-07-17T01:32:03.621120,15.34395532,.0001428,53.1572,165.5693,93.8843,266.2323,0,U,68060,999,2124,.35584E-3,.11663E-3,0
STARLINK-36915,2026-041X,2026-07-17T15:05:53.701728,15.34398738,.0001468,53.1587,162.6937,67.9137,292.2022,0,U,68061,999,2133,.38743E-3,.12735E-3,0
STARLINK-36952,2026-041Y,2026-07-17T08:11:26.924640,15.34408163,.0000849,53.1569,164.4629,94.0239,266.0861,0,U,68062,999,2128,.50602E-3,.16763E-3,0
STARLINK-37000,2026-041Z,2026-07-17T02:20:31.128000,15.34406258,.000132,53.1581,165.7835,81.3960,278.7192,0,U,68063,999,2124,.29671E-3,.9664E-4,0
STARLINK-36996,2026-041AA,2026-07-17T14:59:49.805664,15.34397791,.000061,53.1588,162.6679,94.1637,265.9436,0,U,68064,999,2133,.30013E-3,.9777E-4,0
STARLINK-36836,2026-041AB,2026-07-17T07:51:02.473344,15.34406404,.0000064,53.1583,166.4851,53.1787,306.9221,0,U,68065,999,2125,.43029E-3,.14193E-3,0
STARLINK-36976,2026-041AC,2026-07-17T02:41:35.251584,15.34401356,.0001305,53.1593,165.1570,85.3233,274.7919,0,U,68066,999,2125,.39349E-3,.12942E-3,0
STARLINK-36929,2026-041AD,2026-07-17T06:40:41.149056,15.34401725,.0000863,53.1575,164.7826,92.2689,267.8412,0,U,68067,999,2127,.22446E-3,.7216E-4,0
STARLINK-36990,2026-041AE,2026-07-17T10:04:06.235104,15.34404424,.0001148,53.1559,165.6460,62.5620,297.5500,0,U,68068,999,2127,.3524E-3,.1155E-3,0
STARLINK-36766,2026-042A,2026-07-17T16:11:39.505056,15.34396523,.0000542,53.1587,293.0389,357.0360,3.0639,0,U,68069,999,2223,.27345E-3,.8873E-4,0
STARLINK-36823,2026-042B,2026-07-17T15:31:27.185088,15.34405218,.0000901,53.1585,290.6796,107.8577,252.2524,0,U,68070,999,2226,.41535E-3,.13685E-3,0
STARLINK-36970,2026-042C,2026-07-17T15:53:28.877856,15.34399742,.0000706,53.1599,292.9544,84.3489,275.7594,0,U,68071,999,2223,.23155E-3,.7455E-4,0
STARLINK-36972,2026-042D,2026-07-17T16:38:48.450048,15.34380503,.0000956,53.1581,292.4308,154.1804,205.9246,0,U,68072,999,2224,.45349E-3,.14967E-3,0
