STARLINK-36902          
1 68043U 26041D   26198.11908781  .00014071  00000+0  42687-3 0  9997
2 68043  53.1587 167.3272 0001342  92.2190 267.8966 15.34395039 21226
STARLINK-36966          
1 68044U 26041E   26198.05549685  .00010571  00000+0  32362-3 0  9995
2 68044  53.1590 165.5251 0001345  91.8698 268.2459 15.34392823 21241
STARLINK-36864          
1 68045U 26041F   26198.07653291  .00011597  00000+0  35376-3 0  9994
2 68045  53.1560 165.6537 0001184 104.0620 256.0515 15.34406347 21245
STARLINK-36321          
1 68046U 26041G   26198.30187249  .00009098  00000+0  28010-3 0  9996
2 68046  53.1583 166.3414 0001687  90.2970 269.8226 15.34399278 21251
STARLINK-36181          
1 68047U 26041H   26198.28714144  .00007932  00000+0  24564-3 0  9999
2 68047  53.1581 166.2420 0001022  87.9089 272.2030 15.34402229 21255
STARLINK-36318          
1 68048U 26041J   26198.62076955  .00005519  00000+0  17440-3 0  9993
2 68048  53.1585 163.3550 0002059  84.0910 276.0327 15.34392487 21327
STARLINK-36885          
1 68049U 26041K   26198.32024575  .00012915  00000+0  39264-3 0  9998
2 68049  53.1575 164.3375 0000370  61.9127 298.1913 15.34404491 21281
STARLINK-36945          
1 68050U 26041L   26198.61025912  .00006642  00000+0  20770-3 0  9990
2 68050  53.1570 163.2805 0000774  82.1428 277.9663 15.34372097 21329
STARLINK-35911          
1 68051U 26041M   26198.32080539  .00017026  00000+0  51383-3 0  9997
2 68051  53.1593 166.4508 0000510  78.7311 281.3749 15.34403454 21258
STARLINK-35808          
1 68052U 26041N   26198.62124255  .00008818  00000+0  27183-3 0  9995
2 68052  53.1603 164.7820 0002003  82.9622 277.1609 15.34398407 21305
STARLINK-36919          
1 68053U 26041P   26198.38804433  .00006519  00000+0  20391-3 0  9992
2 68053  53.1574 166.1569 0001038  82.7067 277.4053 15.34396917 21262
STARLINK-36924          
1 68054U 26041Q   26198.60817036  .00022256  00000+0  66800-3 0  9992
2 68054  53.1581 163.2973 0002010  86.3572 273.7661 15.34393260 21329
STARLINK-35998          
1 68055U 26041R   26198.11277306  .00010980  00000+0  33563-3 0  9990
2 68055  53.1594 167.2890 0001363 104.0010 256.1144 15.34399121 21223
STARLINK-36845          
1 68056U 26041S   26198.60604201  .00014589  00000+0  44220-3 0  9994
2 68056  53.1569 163.2573 0002040  80.5117 279.6116 15.34390115 21323
STARLINK-36954          
1 68057U 26041T   26198.07232692  .00008447  00000+0  26091-3 0  9999
2 68057  53.1568 165.6189 0001243  93.6244 266.4900 15.34394308 21246
STARLINK-36899          
1 68058U 26041U   26198.60861889  .00008593  00000+0  26525-3 0  9999
2 68058  53.1574 164.7128 0002114  80.5855 279.5387 15.34390888 21308
STARLINK-36917          
1 68059U 26041V   26198.28877197  .00010680  00000+0  32675-3 0  9996
2 68059  53.1579 164.8355 0000969 108.3656 251.7452 15.34401538 21277
STARLINK-36959          
1 68060U 26041W   26198.06393080  .00011663  00000+0  35584-3 0  9992
2 68060  53.1572 165.5693 0001428  93.8843 266.2323 15.34395532 21243
STARLINK-36915          
1 68061U 26041X   26198.62909377  .00012735  00000+0  38743-3 0  9998
2 68061  53.1587 162.6937 0001468  67.9137 292.2022 15.34398738 21337
STARLINK-36952          
1 68062U 26041Y   26198.34128385  .00016763  00000+0  50602-3 0  9993
2 68062  53.1569 164.4629 0000849  94.0239 266.0861 15.34408163 21280
STARLINK-37000          
1 68063U 26041Z   26198.09758250  .00009664  00000+0  29671-3 0  9990
2 68063  53.1581 165.7835 0001320  81.3960 278.7192 15.34406258 21249
STARLINK-36996          
1 68064U 26041AA  26198.62488201  .00009777  00000+0  30013-3 0  9993
2 68064  53.1588 162.6679 0000610  94.1637 265.9436 15.34397791 21333
STARLINK-36836          
1 68065U 26041AB  26198.32711196  .00014193  00000+0  43029-3 0  9992
2 68065  53.1583 166.4851 0000064  53.1787 306.9221 15.34406404 21258
STARLINK-36976          
1 68066U 26041AC  26198.11221356  .00012942  00000+0  39349-3 0  9994
2 68066  53.1593 165.1570 0001305  85.3233 274.7919 15.34401356 21253
STARLINK-36929          
1 68067U 26041AD  26198.27825404  .00007216  00000+0  22446-3 0  9994
2 68067  53.1575 164.7826 0000863  92.2689 267.8412 15.34401725 21276
STARLINK-36990          
1 68068U 26041AE  26198.41951661  .00011550  00000+0  35240-3 0  9998
2 68068  53.1559 165.6460 0001148  62.5620 297.5500 15.34404424 21272
STARLINK-36766          
1 68069U 26042A   26198.67476279  .00008873  00000+0  27345-3 0  9996
2 68069  53.1587 293.0389 0000542 357.0360   3.0639 15.34396523 22230
STARLINK-36823          
1 68070U 26042B   26198.64684242  .00013685  00000+0  41535-3 0  9990
2 68070  53.1585 290.6796 0000901 107.8577 252.2524 15.34405218 22261
STARLINK-36970          
1 68071U 26042C   26198.66213979  .00007455  00000+0  23155-3 0  9994
2 68071  53.1599 292.9544 0000706  84.3489 275.7594 15.34399742 22235
STARLINK-36972          
1 68072U 26042D   26198.69361632  .00014967  00000+0  45349-3 0  9993
2 68072  53.1581 292.4308 0000956 154.1804 205.9246 15.34380503 22249
